OBJECT_NAME,OBJECT_ID,EPOCH,MEAN_MOTION,ECCENTRICITY,INCLINATION,RA_OF_ASC_NODE,ARG_OF_PERICENTER,MEAN_ANOMALY,EPHEMERIS_TYPE,CLASSIFICATION_TYPE,NORAD_CAT_ID,ELEMENT_SET_NO,REV_AT_EPOCH,BSTAR,MEAN_MOTION_DOT,MEAN_MOTION_DDOT
BEIDOU-2 G3,2010-024A,2026-07-05T02:14:36.061152,1.00270512,.0007796,4.5556,61.4366,358.5519,336.4127,0,U,36590,999,5894,0,-.124E-5,0
BADR-5,2010-025A,2026-07-05T05:25:47.741664,1.00271084,.00046272,0.0567,113.5982,76.8029,204.7273,0,U,36592,999,5339,0,.167E-5,0
COMS 1,2010-032A,2026-07-04T20:44:48.528384,0.99169370,.00116398,4.8475,75.1472,14.1480,147.8491,0,U,36744,999,5126,0,-.135E-5,0
ARABSAT-5A,2010-032B,2026-07-03T14:04:49.273824,1.00275167,.0005796,0.0852,59.3271,58.0470,45.9611,0,U,36745,999,5881,0,.165E-5,0
ECHOSTAR 15,2010-034A,2026-07-05T04:43:15.220416,1.00270387,.0002406,0.0295,290.3218,147.1175,157.7688,0,U,36792,999,5850,0,.13E-6,0
BEIDOU-2 IGSO-1,2010-036A,2026-07-04T23:28:44.807232,1.00267280,.00591838,54.3059,162.7991,225.2498,354.5072,0,U,36828,999,5827,0,-.73E-6,0
NILESAT 201,2010-037A,2026-07-05T05:15:11.258784,1.00271956,.00054684,0.0094,274.7357,215.8811,224.4062,0,U,36830,999,5855,0,-.44E-6,0
RASCOM-QAF 1R,2010-037B,2026-07-03T13:56:57.528096,1.00271534,.0006582,0.0093,91.6422,1.8070,40.2800,0,U,36831,999,5847,0,.3E-6,0
AEHF-1 (USA 214),2010-039A,2026-07-04T19:09:49.116096,1.00270144,.00039966,8.2612,67.8150,32.5322,139.8497,0,U,36868,999,5383,0,.157E-5,0
XM-5,2010-053A,2026-07-02T20:29:51.095904,1.00271810,.00024153,0.0667,268.1133,288.6084,276.4302,0,U,37185,999,5764,0,-.12E-6,0
BSAT-3B,2010-056B,2026-07-05T00:40:30.510624,1.00272082,.00023047,0.0553,228.9802,309.7603,224.2589,0,U,37207,999,5227,0,-.337E-5,0
BEIDOU-2 G4,2010-057A,2026-07-05T08:28:52.662720,1.00271193,.00049744,3.6892,68.8383,187.3736,314.3298,0,U,37210,999,5747,0,-.101E-5,0
SKYTERRA 1,2010-061A,2026-07-04T03:08:29.579424,1.00270206,.0002214,5.1588,50.8236,42.9284,134.1987,0,U,37218,999,5736,0,-.108E-5,0
HYLAS 1,2010-065A,2026-06-30T07:17:51.718848,1.00272596,.00010436,5.6751,72.8623,340.0885,348.6881,0,U,37237,999,701,0,.96E-6,0
INTELSAT 17 (IS-17),2010-065B,2026-07-05T03:53:17.699424,1.00272165,.00025614,0.0042,48.0005,59.9264,299.5411,0,U,37238,999,5342,0,.12E-6,0
BEIDOU-2 IGSO-2,2010-068A,2026-07-04T18:52:36.264576,1.00277550,.00566128,47.5153,271.6140,213.9633,188.6395,0,U,37256,999,5697,0,-.194E-5,0
EUTELSAT KA-SAT 9A,2010-069A,2026-07-02T14:01:27.053760,1.00271458,.0003862,0.0605,12.7072,123.3444,3.9181,0,U,37258,999,4416,0,.72E-6,0
HISPASAT 30W-5,2010-070A,2026-07-05T06:19:57.052992,1.00270570,.00057741,0.0437,105.6655,11.3649,231.2185,0,U,37264,999,5336,0,-.203E-5,0
KOREASAT 6,2010-070B,2026-07-04T11:13:36.300000,1.00271886,.00026129,0.0199,71.9173,44.3221,134.5275,0,U,37265,999,5694,0,-.99E-6,0
BEIDOU-2 IGSO-3,2011-013A,2026-07-04T23:22:18.018624,1.00263911,.00352404,62.4314,39.9847,183.4155,157.1705,0,U,37384,999,5583,0,-.165E-5,0
INTELSAT 28 (IS-28),2011-016A,2026-07-05T04:12:22.062240,1.00271163,.00038302,1.8497,82.4125,25.4226,206.6890,0,U,37392,999,5346,0,-.213E-5,0
YAHSAT 1A,2011-016B,2026-07-02T18:26:34.333152,1.00269059,.00034,0.0185,40.6280,71.1376,138.1848,0,U,37393,999,4256,0,0,0
SBIRS GEO-1 (USA 230),2011-019A,2026-07-04T14:08:04.015968,1.00272823,.00019181,4.5740,53.1133,44.3946,88.9026,0,U,37481,999,5557,0,.11E-5,0
TELSTAR 14R,2011-021A,2026-07-04T08:27:21.375936,1.00270939,.00021207,0.0586,83.3299,355.7829,267.0993,0,U,37602,999,5600,0,-.268E-5,0
GSAT-8,2011-022A,2026-07-04T12:26:22.423776,1.00271356,.00021287,2.1730,81.6229,166.7757,275.8147,0,U,37605,999,5339,0,.96E-6,0
ST-2,2011-022B,2026-07-05T03:59:32.100864,1.00270996,.00016893,0.0163,76.5573,43.8338,310.6830,0,U,37606,999,5545,0,-.198E-5,0
ZHONGXING-10,2011-026A,2026-07-05T02:16:13.406304,1.00271281,.00037768,1.0908,84.0103,13.6950,304.9799,0,U,37677,999,5517,0,-.176E-5,0
SES-3,2011-035A,2026-07-05T03:05:10.683168,1.00271908,.00022333,1.3702,82.9048,15.0961,128.4322,0,U,37748,999,5477,0,-.89E-6,0
KAZSAT-2,2011-035B,2026-07-02T21:00:27.171072,1.00272906,.00018229,0.0160,119.0733,37.1147,166.3416,0,U,37749,999,5355,0,-.187E-5,0
BEIDOU-2 IGSO-4,2011-038A,2026-07-04T23:27:26.858016,1.00281969,.015995,54.6038,165.5148,231.4052,331.9664,0,U,37763,999,5482,0,.36E-6,0
ASTRA 1N,2011-041A,2026-07-02T14:04:26.768352,1.00272787,.000588,0.0898,44.2622,55.7608,50.8904,0,U,37775,999,4468,0,.13E-5,0
BSAT-3C (JCSAT-110R),2011-041B,2026-07-03T16:19:03.078336,1.00271850,.0000776,0.0264,316.8457,197.5232,122.0426,0,U,37776,999,5063,0,-.339E-5,0
